STARLINK-31826
1 59768U 24091R   26092.83335647  .00127093  00000+0  38880-2 0  9999
2 59768  53.1575 274.7292 0002189 315.1046 314.8743 15.32909417  5721
STARLINK-36831
1 67864U 26034Q   26092.83335647 -.02163562  00000+0 -74834-1 0  9997
2 67864  53.1603  92.2508 0000920 116.7779 112.8442 15.32888709  6005
